[{"OBJECT_NAME":"POLYITAN-1","OBJECT_ID":"2014-033AJ","EPOCH":"2026-03-09T22:27:50.258304","MEAN_MOTION":15.29568085,"ECCENTRICITY":0.00093607,"INCLINATION":98.1053,"RA_OF_ASC_NODE":86.0432,"ARG_OF_PERICENTER":127.248,"MEAN_ANOMALY":232.9614,"EPHEMERIS_TYPE":0,"CLASSIFICATION_TYPE":"U","NORAD_CAT_ID":40042,"ELEMENT_SET_NO":999,"REV_AT_EPOCH":63840,"BSTAR":0.00083772474,"MEAN_MOTION_DOT":0.00024003,"MEAN_MOTION_DDOT":0},{"OBJECT_NAME":"STARLINK-32501","OBJECT_ID":"2024-204S","EPOCH":"2026-03-09T10:09:35.483904","MEAN_MOTION":15.30189185,"ECCENTRICITY":0.00011604,"INCLINATION":53.1613,"RA_OF_ASC_NODE":128.5371,"ARG_OF_PERICENTER":85.412,"MEAN_ANOMALY":274.7014,"EPHEMERIS_TYPE":0,"CLASSIFICATION_TYPE":"U","NORAD_CAT_ID":61890,"ELEMENT_SET_NO":999,"REV_AT_EPOCH":7505,"BSTAR":3.0193009e-5,"MEAN_MOTION_DOT":5.35e-6,"MEAN_MOTION_DDOT":0}]
